OPS 7218 (TRANSIT 16)   
1 02807U 67048A   26073.55633867  .00000115  00000+0  16201-3 0  9992
2 02807  89.6809 351.0100 0018948 206.1117 326.7201 13.50745454895154
OPS 4947 (TRANSIT 17)   
1 02965U 67092A   26073.34680817  .00000149  00000+0  20428-3 0  9993
2 02965  89.2572  17.4631 0046925 332.3723 146.8050 13.53479641883363
OPS 7034 (TRANSIT 18)   
1 03133U 68012A   26073.58063438  .00000123  00000+0  17219-3 0  9990
2 03133  90.0208 273.8796 0071966 264.4594 158.9560 13.51590330581598
NNSS 19 (TRANSIT 19)    
1 04507U 70067A   26073.44268959  .00000151  00000+0  19847-3 0  9999
2 04507  90.0069 234.5848 0172474  27.8428 333.1824 13.51339841734604
NNSS 20 (TRANSIT 20)    
1 06909U 73081A   26073.54210934  .00000260  00000+0  25339-3 0  9991
2 06909  89.8518 253.6549 0155247 162.2869 198.3794 13.71477700816190
TRANSAT                 
1 10457U 77106A   26073.55355814  .00000095  00000+0  13615-3 0  9994
2 10457  89.6400  75.2991 0023632 290.4815 190.7095 13.48958789379815
NOVA 1                  
1 12458U 81044A   26073.61447436  .00000078  00000+0  16378-3 0  9992
2 12458  89.8417  90.0413 0013377 204.0146 276.2635 13.23287907164019
NOVA 3                  
1 15362U 84110A   26073.58160529  .00000091  00000+0  19439-3 0  9993
2 15362  90.1125  81.5690 0033428  77.0914  42.6045 13.23057716999131
OSCAR 30                
1 15935U 85066A   26073.56854887  .00000118  00000+0  19626-3 0  9993
2 15935  90.1538 101.3073 0167689 183.9593 297.9295 13.36096029976791
OSCAR 24                
1 15936U 85066B   26073.63767840  .00000103  00000+0  17085-3 0  9995
2 15936  90.1678  93.8850 0168493 190.3005 292.1877 13.35953592978701
POLAR BEAR              
1 17070U 86088A   26073.56967164  .00000119  00000+0  11191-3 0  9993
2 17070  89.6257 180.1272 0038794 200.6386 170.6367 13.75271574972416
OSCAR 27                
1 18361U 87080A   26073.57551765  .00000111  00000+0  17128-3 0  9995
2 18361  90.3645  82.6591 0102556 322.4685  36.9334 13.44925458887914
OSCAR 29                
1 18362U 87080B   26073.55479574  .00000099  00000+0  15237-3 0  9995
2 18362  90.3654  83.1244 0104869 345.9882 133.7816 13.44465240887430
OSCAR 23                
1 19070U 88033A   26073.63436972  .00000079  00000+0  14774-3 0  9998
2 19070  90.3301  19.2620 0187598 285.1041 250.3465 13.27804463834721
OSCAR 32                
1 19071U 88033B   26073.59987064  .00000043  00000+0  73984-4 0  9997
2 19071  90.3305  19.3977 0185878 271.8604 263.8690 13.27968939834849
NOVA 2                  
1 19223U 88052A   26073.59261933  .00000103  00000+0  22327-3 0  9998
2 19223  89.9782  78.1120 0032070 118.7236   2.1758 13.22948324821621
OSCAR 25                
1 19419U 88074A   26073.58334210  .00000115  00000+0  18371-3 0  9994
2 19419  90.0427  20.5615 0095858 345.5292 188.9393 13.42643127838724
