[{"OBJECT_NAME":"OPS 7218 (TRANSIT 16)","OBJECT_ID":"1967-048A","EPOCH":"2026-03-14T13:21:07.661088","MEAN_MOTION":13.50745454,"ECCENTRICITY":0.00189488,"INCLINATION":89.6809,"RA_OF_ASC_NODE":351.01,"ARG_OF_PERICENTER":206.1117,"MEAN_ANOMALY":326.7201,"EPHEMERIS_TYPE":0,"CLASSIFICATION_TYPE":"U","NORAD_CAT_ID":2807,"ELEMENT_SET_NO":999,"REV_AT_EPOCH":89515,"BSTAR":0.00016200859,"MEAN_MOTION_DOT":1.15e-6,"MEAN_MOTION_DDOT":0},{"OBJECT_NAME":"OPS 4947 (TRANSIT 17)","OBJECT_ID":"1967-092A","EPOCH":"2026-03-14T08:19:24.225888","MEAN_MOTION":13.53479641,"ECCENTRICITY":0.00469258,"INCLINATION":89.2572,"RA_OF_ASC_NODE":17.4631,"ARG_OF_PERICENTER":332.3723,"MEAN_ANOMALY":146.805,"EPHEMERIS_TYPE":0,"CLASSIFICATION_TYPE":"U","NORAD_CAT_ID":2965,"ELEMENT_SET_NO":999,"REV_AT_EPOCH":88336,"BSTAR":0.00020428439,"MEAN_MOTION_DOT":1.49e-6,"MEAN_MOTION_DDOT":0},{"OBJECT_NAME":"OPS 7034 (TRANSIT 18)","OBJECT_ID":"1968-012A","EPOCH":"2026-03-14T13:56:06.810432","MEAN_MOTION":13.5159033,"ECCENTRICITY":0.00719661,"INCLINATION":90.0208,"RA_OF_ASC_NODE":273.8796,"ARG_OF_PERICENTER":264.4594,"MEAN_ANOMALY":158.956,"EPHEMERIS_TYPE":0,"CLASSIFICATION_TYPE":"U","NORAD_CAT_ID":3133,"ELEMENT_SET_NO":999,"REV_AT_EPOCH":58159,"BSTAR":0.00017219181,"MEAN_MOTION_DOT":1.23e-6,"MEAN_MOTION_DDOT":0},{"OBJECT_NAME":"NNSS 19 (TRANSIT 19)","OBJECT_ID":"1970-067A","EPOCH":"2026-03-14T10:37:28.380576","MEAN_MOTION":13.51339841,"ECCENTRICITY":0.01724743,"INCLINATION":90.0069,"RA_OF_ASC_NODE":234.5848,"ARG_OF_PERICENTER":27.8428,"MEAN_ANOMALY":333.1824,"EPHEMERIS_TYPE":0,"CLASSIFICATION_TYPE":"U","NORAD_CAT_ID":4507,"ELEMENT_SET_NO":999,"REV_AT_EPOCH":73460,"BSTAR":0.00019847004,"MEAN_MOTION_DOT":1.51e-6,"MEAN_MOTION_DDOT":0},{"OBJECT_NAME":"NNSS 20 (TRANSIT 20)","OBJECT_ID":"1973-081A","EPOCH":"2026-03-14T13:00:38.246976","MEAN_MOTION":13.714777,"ECCENTRICITY":0.01552473,"INCLINATION":89.8518,"RA_OF_ASC_NODE":253.6549,"ARG_OF_PERICENTER":162.2869,"MEAN_ANOMALY":198.3794,"EPHEMERIS_TYPE":0,"CLASSIFICATION_TYPE":"U","NORAD_CAT_ID":6909,"ELEMENT_SET_NO":999,"REV_AT_EPOCH":81619,"BSTAR":0.00025339156,"MEAN_MOTION_DOT":2.6e-6,"MEAN_MOTION_DDOT":0},{"OBJECT_NAME":"TRANSAT","OBJECT_ID":"1977-106A","EPOCH":"2026-03-14T13:17:07.423296","MEAN_MOTION":13.48958789,"ECCENTRICITY":0.00236325,"INCLINATION":89.64,"RA_OF_ASC_NODE":75.2991,"ARG_OF_PERICENTER":290.4815,"MEAN_ANOMALY":190.7095,"EPHEMERIS_TYPE":0,"CLASSIFICATION_TYPE":"U","NORAD_CAT_ID":10457,"ELEMENT_SET_NO":999,"REV_AT_EPOCH":37981,"BSTAR":0.00013614809,"MEAN_MOTION_DOT":9.5e-7,"MEAN_MOTION_DDOT":0},{"OBJECT_NAME":"NOVA 1","OBJECT_ID":"1981-044A","EPOCH":"2026-03-14T14:44:50.584704","MEAN_MOTION":13.23287907,"ECCENTRICITY":0.00133776,"INCLINATION":89.8417,"RA_OF_ASC_NODE":90.0413,"ARG_OF_PERICENTER":204.0146,"MEAN_ANOMALY":276.2635,"EPHEMERIS_TYPE":0,"CLASSIFICATION_TYPE":"U","NORAD_CAT_ID":12458,"ELEMENT_SET_NO":999,"REV_AT_EPOCH":16401,"BSTAR":0.00016377805,"MEAN_MOTION_DOT":7.8e-7,"MEAN_MOTION_DDOT":0},{"OBJECT_NAME":"NOVA 3","OBJECT_ID":"1984-110A","EPOCH":"2026-03-14T13:57:30.697056","MEAN_MOTION":13.23057716,"ECCENTRICITY":0.00334286,"INCLINATION":90.1125,"RA_OF_ASC_NODE":81.569,"ARG_OF_PERICENTER":77.0914,"MEAN_ANOMALY":42.6045,"EPHEMERIS_TYPE":0,"CLASSIFICATION_TYPE":"U","NORAD_CAT_ID":15362,"ELEMENT_SET_NO":999,"REV_AT_EPOCH":99913,"BSTAR":0.00019438987,"MEAN_MOTION_DOT":9.1e-7,"MEAN_MOTION_DDOT":0},{"OBJECT_NAME":"OSCAR 30","OBJECT_ID":"1985-066A","EPOCH":"2026-03-14T13:38:42.622368","MEAN_MOTION":13.36096029,"ECCENTRICITY":0.01676891,"INCLINATION":90.1538,"RA_OF_ASC_NODE":101.3073,"ARG_OF_PERICENTER":183.9593,"MEAN_ANOMALY":297.9295,"EPHEMERIS_TYPE":0,"CLASSIFICATION_TYPE":"U","NORAD_CAT_ID":15935,"ELEMENT_SET_NO":999,"REV_AT_EPOCH":97679,"BSTAR":0.00019625995,"MEAN_MOTION_DOT":1.18e-6,"MEAN_MOTION_DDOT":0},{"OBJECT_NAME":"OSCAR 24","OBJECT_ID":"1985-066B","EPOCH":"2026-03-14T15:18:15.413760","MEAN_MOTION":13.35953592,"ECCENTRICITY":0.01684939,"INCLINATION":90.1678,"RA_OF_ASC_NODE":93.885,"ARG_OF_PERICENTER":190.3005,"MEAN_ANOMALY":292.1877,"EPHEMERIS_TYPE":0,"CLASSIFICATION_TYPE":"U","NORAD_CAT_ID":15936,"ELEMENT_SET_NO":999,"REV_AT_EPOCH":97870,"BSTAR":0.00017085011,"MEAN_MOTION_DOT":1.03e-6,"MEAN_MOTION_DDOT":0},{"OBJECT_NAME":"POLAR BEAR","OBJECT_ID":"1986-088A","EPOCH":"2026-03-14T13:40:19.629696","MEAN_MOTION":13.75271574,"ECCENTRICITY":0.00387945,"INCLINATION":89.6257,"RA_OF_ASC_NODE":180.1272,"ARG_OF_PERICENTER":200.6386,"MEAN_ANOMALY":170.6367,"EPHEMERIS_TYPE":0,"CLASSIFICATION_TYPE":"U","NORAD_CAT_ID":17070,"ELEMENT_SET_NO":999,"REV_AT_EPOCH":97241,"BSTAR":0.00011191336,"MEAN_MOTION_DOT":1.19e-6,"MEAN_MOTION_DDOT":0},{"OBJECT_NAME":"OSCAR 27","OBJECT_ID":"1987-080A","EPOCH":"2026-03-14T13:48:44.724960","MEAN_MOTION":13.44925458,"ECCENTRICITY":0.01025561,"INCLINATION":90.3645,"RA_OF_ASC_NODE":82.6591,"ARG_OF_PERICENTER":322.4685,"MEAN_ANOMALY":36.9334,"EPHEMERIS_TYPE":0,"CLASSIFICATION_TYPE":"U","NORAD_CAT_ID":18361,"ELEMENT_SET_NO":999,"REV_AT_EPOCH":88791,"BSTAR":0.00017127643,"MEAN_MOTION_DOT":1.11e-6,"MEAN_MOTION_DDOT":0},{"OBJECT_NAME":"OSCAR 29","OBJECT_ID":"1987-080B","EPOCH":"2026-03-14T13:18:54.351936","MEAN_MOTION":13.4446524,"ECCENTRICITY":0.01048694,"INCLINATION":90.3654,"RA_OF_ASC_NODE":83.1244,"ARG_OF_PERICENTER":345.9882,"MEAN_ANOMALY":133.7816,"EPHEMERIS_TYPE":0,"CLASSIFICATION_TYPE":"U","NORAD_CAT_ID":18362,"ELEMENT_SET_NO":999,"REV_AT_EPOCH":88743,"BSTAR":0.00015237014,"MEAN_MOTION_DOT":9.9e-7,"MEAN_MOTION_DDOT":0},{"OBJECT_NAME":"OSCAR 23","OBJECT_ID":"1988-033A","EPOCH":"2026-03-14T15:13:29.543808","MEAN_MOTION":13.27804463,"ECCENTRICITY":0.01875981,"INCLINATION":90.3301,"RA_OF_ASC_NODE":19.262,"ARG_OF_PERICENTER":285.1041,"MEAN_ANOMALY":250.3465,"EPHEMERIS_TYPE":0,"CLASSIFICATION_TYPE":"U","NORAD_CAT_ID":19070,"ELEMENT_SET_NO":999,"REV_AT_EPOCH":83472,"BSTAR":0.00014773511,"MEAN_MOTION_DOT":7.9e-7,"MEAN_MOTION_DDOT":0},{"OBJECT_NAME":"OSCAR 32","OBJECT_ID":"1988-033B","EPOCH":"2026-03-14T14:23:48.823296","MEAN_MOTION":13.27968939,"ECCENTRICITY":0.01858789,"INCLINATION":90.3305,"RA_OF_ASC_NODE":19.3977,"ARG_OF_PERICENTER":271.8604,"MEAN_ANOMALY":263.869,"EPHEMERIS_TYPE":0,"CLASSIFICATION_TYPE":"U","NORAD_CAT_ID":19071,"ELEMENT_SET_NO":999,"REV_AT_EPOCH":83484,"BSTAR":7.3984425e-5,"MEAN_MOTION_DOT":4.3e-7,"MEAN_MOTION_DDOT":0},{"OBJECT_NAME":"NOVA 2","OBJECT_ID":"1988-052A","EPOCH":"2026-03-14T14:13:22.310112","MEAN_MOTION":13.22948324,"ECCENTRICITY":0.00320707,"INCLINATION":89.9782,"RA_OF_ASC_NODE":78.112,"ARG_OF_PERICENTER":118.7236,"MEAN_ANOMALY":2.1758,"EPHEMERIS_TYPE":0,"CLASSIFICATION_TYPE":"U","NORAD_CAT_ID":19223,"ELEMENT_SET_NO":999,"REV_AT_EPOCH":82162,"BSTAR":0.00022327286,"MEAN_MOTION_DOT":1.03e-6,"MEAN_MOTION_DDOT":0},{"OBJECT_NAME":"OSCAR 25","OBJECT_ID":"1988-074A","EPOCH":"2026-03-14T14:00:00.757440","MEAN_MOTION":13.42643127,"ECCENTRICITY":0.00958589,"INCLINATION":90.0427,"RA_OF_ASC_NODE":20.5615,"ARG_OF_PERICENTER":345.5292,"MEAN_ANOMALY":188.9393,"EPHEMERIS_TYPE":0,"CLASSIFICATION_TYPE":"U","NORAD_CAT_ID":19419,"ELEMENT_SET_NO":999,"REV_AT_EPOCH":83872,"BSTAR":0.00018371256,"MEAN_MOTION_DOT":1.15e-6,"MEAN_MOTION_DDOT":0}]
